{
    "links": {
        "self": "http://www.neowsapp.com/rest/v1/neo/3759983?api_key=iIulBulltgU6a56xZRHN4H3l9WmuAYTsLGpBGhQ2"
    },
    "id": "3759983",
    "neo_reference_id": "3759983",
    "name": "(2016 SC17)",
    "designation": "2016 SC17",
    "nasa_jpl_url": "http://ssd.jpl.nasa.gov/sbdb.cgi?sstr=3759983",
    "absolute_magnitude_h": 25.4,
    "estimated_diameter": {
        "kilometers": {
            "estimated_diameter_min": 0.022108281,
            "estimated_diameter_max": 0.0494356193
        },
        "meters": {
            "estimated_diameter_min": 22.1082810359,
            "estimated_diameter_max": 49.435619262
        },
        "miles": {
            "estimated_diameter_min": 0.0137374447,
            "estimated_diameter_max": 0.0307178602
        },
        "feet": {
            "estimated_diameter_min": 72.5337327539,
            "estimated_diameter_max": 162.1903570994
        }
    },
    "is_potentially_hazardous_asteroid": false,
    "close_approach_data": [
        {
            "close_approach_date": "2016-09-11",
            "close_approach_date_full": "2016-Sep-11 04:58",
            "epoch_date_close_approach": 1473569880000,
            "relative_velocity": {
                "kilometers_per_second": "8.52335953",
                "kilometers_per_hour": "30684.0943078734",
                "miles_per_hour": "19065.9029325784"
            },
            "miss_distance": {
                "astronomical": "0.0117362196",
                "lunar": "4.5653894244",
                "kilometers": "1755713.454012252",
                "miles": "1090949.7523109976"
            },
            "orbiting_body": "Earth"
        }
    ],
    "orbital_data": {
        "orbit_id": "5",
        "orbit_determination_date": "2017-04-06 08:23:34",
        "first_observation_date": "2016-09-25",
        "last_observation_date": "2016-10-01",
        "data_arc_in_days": 6,
        "observations_used": 17,
        "orbit_uncertainty": "8",
        "minimum_orbit_intersection": ".0116708",
        "jupiter_tisserand_invariant": "3.396",
        "epoch_osculation": "2457660.5",
        "eccentricity": ".5594338339644942",
        "semi_major_axis": "2.25324347270557",
        "inclination": "5.092035689373087",
        "ascending_node_longitude": "164.8238589491369",
        "orbital_period": "1235.408569012389",
        "perihelion_distance": ".9927028379144218",
        "perihelion_argument": "175.5043193656299",
        "aphelion_distance": "3.513784107496718",
        "perihelion_time": "2457635.951299177069",
        "mean_anomaly": "7.153530028790445",
        "mean_motion": ".2914015727507794",
        "equinox": "J2000",
        "orbit_class": {
            "orbit_class_type": "APO",
            "orbit_class_description": "Near-Earth asteroid orbits which cross the Earth’s orbit similar to that of 1862 Apollo",
            "orbit_class_range": "a (semi-major axis) > 1.0 AU; q (perihelion) < 1.017 AU"
        }
    },
    "is_sentry_object": false
}